BEIDOU-3 G3 (PRN 143)   
1 45807U 20040A   26066.04608384 -.00000356  00000+0  00000+0 0  9996
2 45807   2.1964  67.1395 0004574 319.6258 265.0903  1.00274385 21045
GALAXY 30 (WAAS/PRN 135)
1 46114U 20056C   26066.14072602  .00000000  00000+0  00000+0 0  9999
2 46114   0.0216 152.1450 0002041 204.8651  93.5172  1.00271923 20260
QZS-1R (QZSS/PRN 196)   
1 49336U 21096A   26065.82405683 -.00000265  00000+0  00000+0 0  9990
2 49336  37.2488  81.0937 0747759 269.7649 244.5984  1.00290649 15989
QZS-6 (QZSS/PRN 200)    
1 62876U 25023A   26066.09866209 -.00000235  00000+0  00000+0 0  9990
2 62876   0.0301 288.5034 0001825  56.7759 305.5247  1.00269602  3937
